OBJECT_NAME,OBJECT_ID,EPOCH,MEAN_MOTION,ECCENTRICITY,INCLINATION,RA_OF_ASC_NODE,ARG_OF_PERICENTER,MEAN_ANOMALY,EPHEMERIS_TYPE,CLASSIFICATION_TYPE,NORAD_CAT_ID,ELEMENT_SET_NO,REV_AT_EPOCH,BSTAR,MEAN_MOTION_DOT,MEAN_MOTION_DDOT
QIANFAN-205,2026-153E,2026-07-18T21:53:20.345856,14.22264904,.00079571,88.9926,358.6234,170.5286,189.6057,0,U,69804,999,207,.4060826E-4,.105E-5,0
QIANFAN-206,2026-153F,2026-07-18T21:37:50.465856,14.24034656,.000844,88.9926,358.6219,171.1991,188.9351,0,U,69805,999,207,.13589344E-4,.46E-6,0
QIANFAN-207,2026-153G,2026-07-19T06:01:06.108960,14.24251246,.00079254,88.9927,358.5812,170.1910,189.9439,0,U,69806,999,212,.54339842E-4,.14E-5,0
QIANFAN-208,2026-153H,2026-07-18T21:30:05.571648,14.25462891,.0008667,88.9926,358.6211,171.9931,188.1402,0,U,69807,999,207,.61583086E-4,.16E-5,0
QIANFAN-209,2026-153J,2026-07-18T23:20:44.774880,14.23086850,.00078094,88.9926,358.6140,168.3428,191.7946,0,U,69808,999,208,.54959855E-4,.138E-5,0
QIANFAN-210,2026-153K,2026-07-19T06:00:31.022784,14.23252975,.00083983,88.9927,358.5812,170.1877,189.9480,0,U,69809,999,212,.49107477E-4,.126E-5,0
QIANFAN-211,2026-153L,2026-07-19T05:59:33.050112,14.23382506,.00080188,88.9927,358.5810,167.2362,192.9035,0,U,69810,999,212,.46646434E-4,.12E-5,0
QIANFAN-212,2026-153M,2026-07-18T04:32:30.888096,14.22682297,.00122001,88.9888,358.7049,152.0967,208.0882,0,U,69811,999,197,-.97540315E+0,-.201872E-1,0
QIANFAN-213,2026-153N,2026-07-17T21:48:21.510720,14.21939575,.00078274,88.9917,358.7338,155.5754,204.5809,0,U,69812,999,193,-.9822754E+0,-.2004805E-1,0
QIANFAN-214,2026-153P,2026-07-18T23:03:39.865248,14.26672643,.0008141,88.9926,358.6122,171.0888,189.0452,0,U,69813,999,208,.18792264E-4,.6E-6,0
QIANFAN-215,2026-153Q,2026-07-18T23:03:34.083360,14.26719080,.00083545,88.9925,358.6119,173.3885,186.7420,0,U,69814,999,208,.4637606E-4,.127E-5,0
QIANFAN-216,2026-153R,2026-07-19T05:47:32.237376,14.26720363,.00083708,88.9926,358.5797,172.3693,187.7630,0,U,69815,999,212,.56526951E-4,.151E-5,0
QIANFAN-217,2026-153S,2026-07-19T05:46:48.031680,14.26768184,.00080636,88.9925,358.5795,169.0544,191.0827,0,U,69816,999,212,.15192233E-4,.52E-6,0
QIANFAN-218,2026-153T,2026-07-19T05:46:10.486560,14.26811417,.00078407,88.9928,358.5799,166.4259,193.7147,0,U,69817,999,212,.45834869E-4,.126E-5,0
STARLINK-37520,2026-154A,2026-07-19T05:46:57.789696,15.81024470,.00007237,53.1575,272.6769,97.2107,262.8998,0,U,69819,999,345,.15597398E-2,.321111E-2,0
STARLINK-37553,2026-154B,2026-07-19T05:45:52.877376,15.81016714,.00005888,53.1573,272.6719,141.6324,218.4741,0,U,69820,999,345,.14903554E-2,.30615E-2,0
STARLINK-37561,2026-154C,2026-07-19T05:44:48.075648,15.81023210,.00008998,53.1575,272.6659,122.6824,237.4285,0,U,69821,999,345,.15204839E-2,.31268E-2,0
STARLINK-37521,2026-154D,2026-07-19T05:43:43.209120,15.81012767,.00014633,53.1574,272.6614,128.4702,231.6452,0,U,69822,999,345,.15454827E-2,.317866E-2,0
STARLINK-37628,2026-154E,2026-07-19T05:42:38.473920,15.81033749,.00007655,53.1578,272.6561,112.0917,248.0188,0,U,69823,999,345,.16311995E-2,.336611E-2,0
STARLINK-37695,2026-154F,2026-07-19T06:00:02.000160,15.80896979,.00008306,53.1586,272.5135,105.1035,3.3264,0,U,69824,999,332,-.18018978E-3,-.36152E-3,0
STARLINK-37690,2026-154G,2026-07-19T06:00:02.000160,15.80890540,.00012173,53.1584,272.5780,98.2764,339.1452,0,U,69825,999,332,-.12590292E-3,-.25495E-3,0
STARLINK-37710,2026-154H,2026-07-19T06:00:02.000160,15.80887455,.00009725,53.1584,272.5690,99.4658,342.2303,0,U,69826,999,332,-.21295532E-3,-.4255E-3,0
STARLINK-38031,2026-154J,2026-07-19T06:00:02.000160,15.80892102,.00010862,53.1585,272.5599,95.6980,350.2654,0,U,69827,999,332,-.13065507E-3,-.2643E-3,0
STARLINK-38001,2026-154K,2026-07-19T06:00:02.000160,15.80893410,.00011327,53.1587,272.5511,99.5365,350.6997,0,U,69828,999,332,-.14594209E-3,-.29432E-3,0
STARLINK-37622,2026-154L,2026-07-19T06:00:02.000160,15.80889504,.00012026,53.1586,272.5424,92.1940,2.3146,0,U,69829,999,332,-.96093597E-4,-.19636E-3,0
STARLINK-37621,2026-154M,2026-07-19T06:00:02.000160,15.80891467,.00011323,53.1586,272.5335,101.2469,357.5335,0,U,69830,999,332,-.12008086E-3,-.24352E-3,0
STARLINK-37918,2026-154N,2026-07-19T06:00:02.000160,15.80894067,.00012106,53.1584,272.5247,84.2016,18.8504,0,U,69831,999,332,-.23325286E-3,-.46533E-3,0
STARLINK-37887,2026-154P,2026-07-19T06:00:02.000160,15.80891937,.00009861,53.1586,272.5156,92.8132,14.5097,0,U,69832,999,332,-.11304137E-3,-.22969E-3,0
STARLINK-37624,2026-154Q,2026-07-19T06:00:02.000160,15.80890386,.00011969,53.1584,272.5066,95.0786,16.5165,0,U,69833,999,332,-.96897439E-4,-.19795E-3,0
STARLINK-37769,2026-154R,2026-07-19T06:00:02.000160,15.80882061,.00011839,53.1583,272.4978,89.0780,26.7923,0,U,69834,999,332,-.11122001E-3,-.22602E-3,0
STARLINK-37247,2026-154S,2026-07-19T06:00:02.000160,15.80893004,.00011356,53.1583,272.4891,98.2090,21.9285,0,U,69835,999,342,-.13186266E-3,-.26668E-3,0
STARLINK-37569,2026-154T,2026-07-19T06:00:02.000160,15.80884070,.00011059,53.1584,272.4805,99.8308,24.5803,0,U,69836,999,332,-.87349858E-4,-.17912E-3,0
STARLINK-37587,2026-154U,2026-07-19T06:00:02.000160,15.80893202,.00011361,53.1582,272.4712,99.7168,28.9671,0,U,69837,999,329,-.14190563E-3,-.2864E-3,0
STARLINK-37590,2026-154V,2026-07-19T06:00:02.000160,15.80890866,.00011091,53.1582,272.4624,96.6142,36.3395,0,U,69838,999,316,-.21625181E-3,-.43202E-3,0
STARLINK-37589,2026-154W,2026-07-19T06:00:02.000160,15.80883793,.00011021,53.1582,272.4536,99.4588,37.7665,0,U,69839,999,329,-.75668492E-4,-.15614E-3,0
STARLINK-37487,2026-154X,2026-07-19T06:00:02.000160,15.80911587,.00011103,53.1588,271.9721,81.2279,287.6551,0,U,69840,999,329,-.467211E-3,-.92098E-3,0
STARLINK-37433,2026-154Y,2026-07-19T06:00:02.000160,15.80951919,.0000791,53.1628,271.9732,51.1573,317.0536,0,U,69841,999,342,-.54824427E-3,-.10795E-2,0
STARLINK-37588,2026-154Z,2026-07-19T06:00:02.000160,15.80904677,.00010938,53.1587,271.9372,72.0101,313.4240,0,U,69842,999,332,-.25162356E-3,-.50146E-3,0
STARLINK-37579,2026-154AA,2026-07-19T06:00:02.000160,15.80917827,.00006125,53.1591,271.9406,67.5786,316.2753,0,U,69843,999,332,-.51026666E-3,-.100448E-2,0
STARLINK-37584,2026-154AB,2026-07-19T06:00:02.000160,15.80880920,.00017026,53.1635,271.9324,45.4063,342.2669,0,U,69844,999,332,-.15992074E-4,-.3856E-4,0
STARLINK-37606,2026-154AC,2026-07-19T06:00:02.000160,15.80933482,.00011705,53.1633,271.9207,102.2605,290.5413,0,U,69845,999,332,-.37131661E-3,-.73568E-3,0
STARLINK-37603,2026-154AD,2026-07-19T06:00:02.000160,15.80904559,.0001342,53.1635,271.9139,67.0193,329.1489,0,U,69846,999,332,-.20227692E-3,-.40494E-3,0
STARLINK-37595,2026-154AE,2026-07-19T06:00:02.000160,15.80923544,.00009417,53.1592,271.9028,90.5034,310.8762,0,U,69847,999,332,-.61196638E-3,-.120094E-2,0
QIANFAN-219,2026-155A,2026-07-18T14:11:08.455776,14.26455418,.0030833,89.0064,60.5597,211.5196,148.4151,0,U,69848,999,186,.15688E-4,.52E-6,0
QIANFAN-220,2026-155B,2026-07-19T05:57:22.249152,14.17597735,.0029731,89.0063,60.4914,208.5809,151.3752,0,U,69849,999,195,.14663842E-4,.44E-6,0
QIANFAN-221,2026-155C,2026-07-19T05:18:43.429536,14.26648033,.00307193,89.0063,60.4875,209.7865,150.1581,0,U,69850,999,195,.65041934E-4,.172E-5,0
QIANFAN-222,2026-155D,2026-07-17T19:58:00.985440,14.22185075,.00295553,89.0065,60.6495,214.6997,145.2267,0,U,69851,999,175,.15570034E-4,.49E-6,0
QIANFAN-223,2026-155E,2026-07-18T21:14:36.678336,14.22140414,.00294151,89.0065,60.5299,210.4401,149.5084,0,U,69852,999,190,.68069104E-4,.166E-5,0
QIANFAN-224,2026-155F,2026-07-17T21:29:45.028320,14.18497223,.00311144,89.0052,60.6399,224.5648,135.3039,0,U,69853,999,176,-.93450076E+0,-.1809487E-1,0
QIANFAN-225,2026-155G,2026-07-19T02:11:31.389792,14.22451285,.00293543,89.0063,60.5050,210.7223,149.2251,0,U,69854,999,193,.75878941E-4,.184E-5,0
QIANFAN-226,2026-155H,2026-07-19T02:09:26.520192,14.22559312,.00303752,89.0063,60.5048,210.3455,149.5980,0,U,69855,999,193,.76511685E-4,.186E-5,0
QIANFAN-227,2026-155J,2026-07-17T23:01:29.628480,14.20399872,.0030842,89.0062,60.6317,215.0610,144.8550,0,U,69856,999,177,-.10085763E+1,-.2008388E-1,0
QIANFAN-228,2026-155K,2026-07-17T23:00:18.463392,14.20295178,.00318777,89.0055,60.6322,218.7208,141.1698,0,U,69857,999,177,-.95328318E+0,-.1902873E-1,0
QIANFAN-229,2026-155L,2026-07-18T20:52:57.173088,14.26690212,.00308184,89.0064,60.5275,210.5909,149.3489,0,U,69858,999,190,.60229541E-4,.161E-5,0
QIANFAN-230,2026-155M,2026-07-17T21:41:32.151840,14.16167691,.00329611,89.0054,60.6411,222.0372,137.8286,0,U,69859,999,176,-.10463152E+1,-.1931944E-1,0
QIANFAN-231,2026-155N,2026-07-18T22:39:37.495872,14.26097133,.00308993,89.0065,60.5202,209.7131,150.2309,0,U,69860,999,191,.71810741E-4,.187E-5,0
QIANFAN-232,2026-155P,2026-07-18T00:40:47.018208,14.26736537,.00305938,89.0063,60.6233,214.1355,145.7872,0,U,69861,999,178,.7652291E-4,.2E-5,0
QIANFAN-233,2026-155Q,2026-07-19T00:14:30.733152,14.26752686,.00306545,89.0064,60.5114,210.5789,149.3619,0,U,69862,999,192,.65051495E-4,.173E-5,0
QIANFAN-234,2026-155R,2026-07-19T05:17:24.143712,14.26759406,.00306534,89.0064,60.4875,209.8833,150.0612,0,U,69863,999,195,.68118549E-4,.18E-5,0
QIANFAN-235,2026-155S,2026-07-19T05:17:19.295808,14.26765247,.00306071,89.0064,60.4874,209.9127,150.0319,0,U,69864,999,195,.59699456E-4,.16E-5,0
QIANFAN-236,2026-155T,2026-07-19T01:55:16.036608,14.26770514,.00305619,89.0064,60.5035,210.4183,149.5239,0,U,69865,999,193,.72758697E-4,.191E-5,0
QIANFAN-237,2026-155U,2026-07-19T05:17:08.166624,14.26778727,.00305511,89.0064,60.4874,209.9667,149.9779,0,U,69866,999,194,.6613534E-4,.175E-5,0
QIANFAN-238,2026-155V,2026-07-19T05:17:02.087520,14.26786189,.00305304,89.0064,60.4874,210.0034,149.9412,0,U,69867,999,195,.65039264E-4,.173E-5,0
STARLINK-37886,2026-157A,2026-07-19T06:00:02.000160,15.80895143,.00011003,53.1594,275.5097,82.1202,65.9683,0,U,69943,999,280,-.14560664E-3,-.29369E-3,0
